STARLINK-1470           
1 45772U 20038AU  26068.60892913  .00054678  00000+0  19687-2 0  9990
2 45772  53.0480 174.6971 0002444  12.8687 347.2373 15.28074860317065
STARLINK-2250           
1 48593U 21041AS  26068.48284548  .00003289  00000+0  12312-3 0  9995
2 48593  53.1594 140.8837 0001319  54.7076 305.4048 15.30204716265053
