[{"OBJECT_NAME":"STARLINK-1470","OBJECT_ID":"2020-038AU","EPOCH":"2026-03-09T14:36:51.476832","MEAN_MOTION":15.2807486,"ECCENTRICITY":0.0002444,"INCLINATION":53.048,"RA_OF_ASC_NODE":174.6971,"ARG_OF_PERICENTER":12.8687,"MEAN_ANOMALY":347.2373,"EPHEMERIS_TYPE":0,"CLASSIFICATION_TYPE":"U","NORAD_CAT_ID":45772,"ELEMENT_SET_NO":999,"REV_AT_EPOCH":31706,"BSTAR":0.0019687,"MEAN_MOTION_DOT":0.00054678,"MEAN_MOTION_DDOT":0},{"OBJECT_NAME":"STARLINK-2250","OBJECT_ID":"2021-041AS","EPOCH":"2026-03-09T11:35:17.849472","MEAN_MOTION":15.30204716,"ECCENTRICITY":0.00013199,"INCLINATION":53.1594,"RA_OF_ASC_NODE":140.8837,"ARG_OF_PERICENTER":54.7076,"MEAN_ANOMALY":305.4048,"EPHEMERIS_TYPE":0,"CLASSIFICATION_TYPE":"U","NORAD_CAT_ID":48593,"ELEMENT_SET_NO":999,"REV_AT_EPOCH":26505,"BSTAR":0.00012311865,"MEAN_MOTION_DOT":3.289e-5,"MEAN_MOTION_DDOT":0}]
